start=new Date('2022-11-29T00:00:00.000Z').valueOf();
sats=[{"PERIAPSIS":"537.728","INCLINATION":"53.2154","REV_AT_EPOCH":"3076","NORAD_CAT_ID":"52642","TLE_LINE1":"1 52642U 22052AW  22332.44930761  .00002992  00000-0  20600-3 0  9999","SEMIMAJOR_AXIS":"6917.867","BSTAR":"0.00020600000000","OBJECT_ID":"2022-052AW","OBJECT_TYPE":"PAYLOAD","LAUNCH_DATE":"2022-05-14","EPHEMERIS_TYPE":"0","REF_FRAME":"TEME","TLE_LINE2":"2 52642  53.2154 233.7309 0002897  28.4039 331.7110 15.08844319 30765","ARG_OF_PERICENTER":"28.4039","FILE":"3672227","CLASSIFICATION_TYPE":"U","MEAN_MOTION_DOT":"0.00002992","MEAN_ANOMALY":"331.7110","MEAN_ELEMENT_THEORY":"SGP4","EPOCH":"2022-11-28T10:47:00.177504","SITE":"AFETR","RA_OF_ASC_NODE":"233.7309","APOAPSIS":"541.736","ECCENTRICITY":"0.00028970","PERIOD":"95.437","TIME_SYSTEM":"UTC","RCS_SIZE":"LARGE","MEAN_MOTION_DDOT":"0.0000000000000","GP_ID":"219000578","CENTER_NAME":"EARTH","MEAN_MOTION":"15.08844319","ELEMENT_SET_NO":"999","DECAY_DATE":null,"OBJECT_NAME":"STARLINK-3971","COUNTRY_CODE":"US"},{"CLASSIFICATION_TYPE":"U","ARG_OF_PERICENTER":"34.4145","FILE":"3672227","MEAN_MOTION_DOT":"-0.00001757","MEAN_ELEMENT_THEORY":"SGP4","MEAN_ANOMALY":"325.7037","LAUNCH_DATE":"2022-05-14","EPHEMERIS_TYPE":"0","OBJECT_TYPE":"PAYLOAD","TLE_LINE2":"2 52643  53.2191 234.7362 0002951  34.4145 325.7037 15.08837990 30738","REF_FRAME":"TEME","NORAD_CAT_ID":"52643","TLE_LINE1":"1 52643U 22052AX  22332.22850041 -.00001757  00000-0 -92255-4 0  9994","INCLINATION":"53.2191","PERIAPSIS":"537.710","REV_AT_EPOCH":"3073","BSTAR":"-0.00009225500000","OBJECT_ID":"2022-052AX","SEMIMAJOR_AXIS":"6917.887","OBJECT_NAME":"STARLINK-3963","COUNTRY_CODE":"US","MEAN_MOTION":"15.08837990","ELEMENT_SET_NO":"999","DECAY_DATE":null,"CENTER_NAME":"EARTH","MEAN_MOTION_DDOT":"0.0000000000000","GP_ID":"219000306","APOAPSIS":"541.793","RA_OF_ASC_NODE":"234.7362","ECCENTRICITY":"0.00029510","EPOCH":"2022-11-28T05:29:02.435424","SITE":"AFETR","RCS_SIZE":"LARGE","PERIOD":"95.438","TIME_SYSTEM":"UTC"},{"EPHEMERIS_TYPE":"0","LAUNCH_DATE":"2022-05-14","OBJECT_TYPE":"PAYLOAD","TLE_LINE2":"2 52644  53.2179 235.5427 0003006  37.7159 322.4044 15.08841107 30703","REF_FRAME":"TEME","TLE_LINE1":"1 52644U 22052AY  22332.04818017 -.00001962  00000-0 -10518-3 0  9991","NORAD_CAT_ID":"52644","PERIAPSIS":"537.662","REV_AT_EPOCH":"3070","INCLINATION":"53.2179","OBJECT_ID":"2022-052AY","BSTAR":"-0.00010518000000","SEMIMAJOR_AXIS":"6917.877","CLASSIFICATION_TYPE":"U","FILE":"3671945","ARG_OF_PERICENTER":"37.7159","MEAN_ANOMALY":"322.4044","MEAN_ELEMENT_THEORY":"SGP4","MEAN_MOTION_DOT":"-0.00001962","CENTER_NAME":"EARTH","MEAN_MOTION_DDOT":"0.0000000000000","GP_ID":"218994640","ECCENTRICITY":"0.00030060","RA_OF_ASC_NODE":"235.5427","APOAPSIS":"541.822","SITE":"AFETR","EPOCH":"2022-11-28T01:09:22.766688","RCS_SIZE":"LARGE","TIME_SYSTEM":"UTC","PERIOD":"95.437","OBJECT_NAME":"STARLINK-3985","COUNTRY_CODE":"US","ELEMENT_SET_NO":"999","MEAN_MOTION":"15.08841107","DECAY_DATE":null},{"TLE_LINE1":"1 52645U 22052AZ  22331.76209913 -.00001388  00000-0 -69069-4 0  9997","NORAD_CAT_ID":"52645","REV_AT_EPOCH":"3028","PERIAPSIS":"537.634","INCLINATION":"53.2197","OBJECT_ID":"2022-052AZ","BSTAR":"-0.00006906900000","SEMIMAJOR_AXIS":"6917.892","EPHEMERIS_TYPE":"0","LAUNCH_DATE":"2022-05-14","OBJECT_TYPE":"PAYLOAD","TLE_LINE2":"2 52645  53.2197 236.8327 0003068  32.9469 327.1714 15.08836310 30285","REF_FRAME":"TEME","CLASSIFICATION_TYPE":"U","FILE":"3671921","ARG_OF_PERICENTER":"32.9469","MEAN_ANOMALY":"327.1714","MEAN_ELEMENT_THEORY":"SGP4","MEAN_MOTION_DOT":"-0.00001388","ECCENTRICITY":"0.00030680","APOAPSIS":"541.879","RA_OF_ASC_NODE":"236.8327","SITE":"AFETR","EPOCH":"2022-11-27T18:17:25.364832","RCS_SIZE":"LARGE","TIME_SYSTEM":"UTC","PERIOD":"95.438","CENTER_NAME":"EARTH","MEAN_MOTION_DDOT":"0.0000000000000","GP_ID":"218991257","ELEMENT_SET_NO":"999","MEAN_MOTION":"15.08836310","DECAY_DATE":null,"OBJECT_NAME":"STARLINK-3973","COUNTRY_CODE":"US"},{"OBJECT_TYPE":"PAYLOAD","LAUNCH_DATE":"2022-05-14","EPHEMERIS_TYPE":"0","TLE_LINE2":"2 52646  53.2193 236.4838 0002886  37.6212 322.4982 15.08842350 30309","REF_FRAME":"TEME","REV_AT_EPOCH":"3030","PERIAPSIS":"537.742","INCLINATION":"53.2193","NORAD_CAT_ID":"52646","TLE_LINE1":"1 52646U 22052BA  22331.83842677 -.00002469  00000-0 -13700-3 0  9997","SEMIMAJOR_AXIS":"6917.873","BSTAR":"-0.00013700000000","OBJECT_ID":"2022-052BA","ARG_OF_PERICENTER":"37.6212","FILE":"3671921","CLASSIFICATION_TYPE":"U","MEAN_MOTION_DOT":"-0.00002469","MEAN_ANOMALY":"322.4982","MEAN_ELEMENT_THEORY":"SGP4","GP_ID":"218992006","MEAN_MOTION_DDOT":"0.0000000000000","CENTER_NAME":"EARTH","EPOCH":"2022-11-27T20:07:20.072928","SITE":"AFETR","APOAPSIS":"541.735","RA_OF_ASC_NODE":"236.4838","ECCENTRICITY":"0.00028860","TIME_SYSTEM":"UTC","PERIOD":"95.437","RCS_SIZE":"LARGE","OBJECT_NAME":"STARLINK-3832","COUNTRY_CODE":"US","MEAN_MOTION":"15.08842350","ELEMENT_SET_NO":"999","DECAY_DATE":null},{"TIME_SYSTEM":"UTC","PERIOD":"95.438","RCS_SIZE":"LARGE","EPOCH":"2022-11-27T18:06:49.554144","SITE":"AFETR","RA_OF_ASC_NODE":"236.8673","APOAPSIS":"541.746","ECCENTRICITY":"0.00028420","GP_ID":"218992258","MEAN_MOTION_DDOT":"0.0000000000000","CENTER_NAME":"EARTH","DECAY_DATE":null,"MEAN_MOTION":"15.08828748","ELEMENT_SET_NO":"999","COUNTRY_CODE":"US","OBJECT_NAME":"STARLINK-3846","SEMIMAJOR_AXIS":"6917.915","BSTAR":"-0.00006935700000","OBJECT_ID":"2022-052BB","PERIAPSIS":"537.814","INCLINATION":"53.2191","REV_AT_EPOCH":"3029","NORAD_CAT_ID":"52647","TLE_LINE1":"1 52647U 22052BB  22331.75474021 -.00001392  00000-0 -69357-4 0  9997","REF_FRAME":"TEME","TLE_LINE2":"2 52647  53.2191 236.8673 0002842  38.2821 321.8373 15.08828748 30294","OBJECT_TYPE":"PAYLOAD","LAUNCH_DATE":"2022-05-14","EPHEMERIS_TYPE":"0","MEAN_MOTION_DOT":"-0.00001392","MEAN_ELEMENT_THEORY":"SGP4","MEAN_ANOMALY":"321.8373","ARG_OF_PERICENTER":"38.2821","FILE":"3671921","CLASSIFICATION_TYPE":"U"},{"PERIOD":"95.438","TIME_SYSTEM":"UTC","RCS_SIZE":"LARGE","EPOCH":"2022-11-28T03:58:57.253152","SITE":"AFETR","RA_OF_ASC_NODE":"235.0150","APOAPSIS":"542.102","ECCENTRICITY":"0.00033790","GP_ID":"219000293","MEAN_MOTION_DDOT":"0.0000000000000","CENTER_NAME":"EARTH","DECAY_DATE":null,"MEAN_MOTION":"15.08833708","ELEMENT_SET_NO":"999","COUNTRY_CODE":"US","OBJECT_NAME":"STARLINK-3854","SEMIMAJOR_AXIS":"6917.900","BSTAR":"-0.00003998200000","OBJECT_ID":"2022-052BC","REV_AT_EPOCH":"3072","PERIAPSIS":"537.427","INCLINATION":"53.2189","NORAD_CAT_ID":"52648","TLE_LINE1":"1 52648U 22052BC  22332.16594043 -.00000925  00000-0 -39982-4 0  9993","TLE_LINE2":"2 52648  53.2189 235.0150 0003379  29.1184 330.9996 15.08833708 30722","REF_FRAME":"TEME","OBJECT_TYPE":"PAYLOAD","LAUNCH_DATE":"2022-05-14","EPHEMERIS_TYPE":"0","MEAN_MOTION_DOT":"-0.00000925","MEAN_ELEMENT_THEORY":"SGP4","MEAN_ANOMALY":"330.9996","ARG_OF_PERICENTER":"29.1184","FILE":"3672227","CLASSIFICATION_TYPE":"U"},{"ARG_OF_PERICENTER":"22.4625","FILE":"3672233","CLASSIFICATION_TYPE":"U","MEAN_MOTION_DOT":"-0.00006675","MEAN_ANOMALY":"337.6492","MEAN_ELEMENT_THEORY":"SGP4","OBJECT_TYPE":"PAYLOAD","LAUNCH_DATE":"2022-05-14","EPHEMERIS_TYPE":"0","REF_FRAME":"TEME","TLE_LINE2":"2 52649  53.2203 234.7700 0002868  22.4625 337.6492 15.08857345 30734","INCLINATION":"53.2203","PERIAPSIS":"537.708","REV_AT_EPOCH":"3073","NORAD_CAT_ID":"52649","TLE_LINE1":"1 52649U 22052BD  22332.22208802 -.00006675  00000-0 -40143-3 0  9994","SEMIMAJOR_AXIS":"6917.827","BSTAR":"-0.00040143000000","OBJECT_ID":"2022-052BD","OBJECT_NAME":"STARLINK-3868","COUNTRY_CODE":"US","MEAN_MOTION":"15.08857345","ELEMENT_SET_NO":"999","DECAY_DATE":null,"MEAN_MOTION_DDOT":"0.0000000000000","GP_ID":"219000594","CENTER_NAME":"EARTH","EPOCH":"2022-11-28T05:19:48.404928","SITE":"AFETR","RA_OF_ASC_NODE":"234.7700","APOAPSIS":"541.676","ECCENTRICITY":"0.00028680","TIME_SYSTEM":"UTC","PERIOD":"95.436","RCS_SIZE":"LARGE"},{"OBJECT_NAME":"STARLINK-3891","COUNTRY_CODE":"US","ELEMENT_SET_NO":"999","MEAN_MOTION":"15.08844750","DECAY_DATE":null,"CENTER_NAME":"EARTH","MEAN_MOTION_DDOT":"0.0000000000000","GP_ID":"219000598","ECCENTRICITY":"0.00032530","RA_OF_ASC_NODE":"223.8291","APOAPSIS":"541.981","SITE":"AFETR","EPOCH":"2022-11-28T10:17:53.670624","RCS_SIZE":"LARGE","PERIOD":"95.437","TIME_SYSTEM":"UTC","CLASSIFICATION_TYPE":"U","FILE":"3672233","ARG_OF_PERICENTER":"34.5792","MEAN_ANOMALY":"325.5412","MEAN_ELEMENT_THEORY":"SGP4","MEAN_MOTION_DOT":"-0.00000672","EPHEMERIS_TYPE":"0","LAUNCH_DATE":"2022-05-14","OBJECT_TYPE":"PAYLOAD","REF_FRAME":"TEME","TLE_LINE2":"2 52650  53.2192 223.8291 0003253  34.5792 325.5412 15.08844750 30908","TLE_LINE1":"1 52650U 22052BE  22332.42909341 -.00000672  00000-0 -24050-4 0  9995","NORAD_CAT_ID":"52650","PERIAPSIS":"537.480","INCLINATION":"53.2192","REV_AT_EPOCH":"3090","OBJECT_ID":"2022-052BE","BSTAR":"-0.00002405000000","SEMIMAJOR_AXIS":"6917.866"},{"MEAN_MOTION_DOT":"0.00000270","MEAN_ANOMALY":"289.1013","MEAN_ELEMENT_THEORY":"SGP4","CLASSIFICATION_TYPE":"U","ARG_OF_PERICENTER":"71.0164","FILE":"3672281","REF_FRAME":"TEME","TLE_LINE2":"2 52656  53.2183 128.6556 0001708  71.0164 289.1013 15.08846594 30373","LAUNCH_DATE":"2022-05-18","EPHEMERIS_TYPE":"0","OBJECT_TYPE":"PAYLOAD","BSTAR":"0.00003505000000","OBJECT_ID":"2022-053A","SEMIMAJOR_AXIS":"6917.860","NORAD_CAT_ID":"52656","TLE_LINE1":"1 52656U 22053A   22332.46816826  .00000270  00000-0  35050-4 0  9995","REV_AT_EPOCH":"3037","PERIAPSIS":"538.544","INCLINATION":"53.2183","COUNTRY_CODE":"US","OBJECT_NAME":"STARLINK-4004","DECAY_DATE":null,"MEAN_MOTION":"15.08846594","ELEMENT_SET_NO":"999","CENTER_NAME":"EARTH","GP_ID":"219001830","MEAN_MOTION_DDOT":"0.0000000000000","RCS_SIZE":"LARGE","TIME_SYSTEM":"UTC","PERIOD":"95.437","RA_OF_ASC_NODE":"128.6556","APOAPSIS":"540.907","ECCENTRICITY":"0.00017080","EPOCH":"2022-11-28T11:14:09.737664","SITE":"AFETR"}];
